[{"OBJECT_NAME":"UM5-RIBAT","OBJECT_ID":"2024-149CQ","EPOCH":"2026-03-09T19:05:41.327808","MEAN_MOTION":15.00468196,"ECCENTRICITY":0.00032721,"INCLINATION":97.6776,"RA_OF_ASC_NODE":147.9138,"ARG_OF_PERICENTER":87.0399,"MEAN_ANOMALY":273.1199,"EPHEMERIS_TYPE":0,"CLASSIFICATION_TYPE":"U","NORAD_CAT_ID":60554,"ELEMENT_SET_NO":999,"REV_AT_EPOCH":8528,"BSTAR":0.00037992942,"MEAN_MOTION_DOT":4.725e-5,"MEAN_MOTION_DDOT":0},{"OBJECT_NAME":"STARLINK-35717","OBJECT_ID":"2025-280U","EPOCH":"2026-03-09T22:33:27.809280","MEAN_MOTION":14.98330745,"ECCENTRICITY":0.00026692,"INCLINATION":70.0028,"RA_OF_ASC_NODE":333.8107,"ARG_OF_PERICENTER":274.0028,"MEAN_ANOMALY":86.0826,"EPHEMERIS_TYPE":0,"CLASSIFICATION_TYPE":"U","NORAD_CAT_ID":66839,"ELEMENT_SET_NO":999,"REV_AT_EPOCH":1611,"BSTAR":0.0002972443,"MEAN_MOTION_DOT":3.456e-5,"MEAN_MOTION_DDOT":0}]
